FENGYUN 1C DEB          
1 32114U 99025CRG 26038.18679418  .00023420  00000+0  31100-2 0  9996
2 32114  99.9258 173.2112 0044865 175.1392 185.0257 14.79089533665630
FENGYUN 1C DEB          
1 32117U 99025CRK 26035.08332436  .00002255  00000+0  99333-3 0  9997
2 32117  98.6032  84.3245 0025082 292.7618  67.0911 14.24229915955565
FENGYUN 1C DEB          
1 32119U 99025CRM 26036.38119521  .00001253  00000+0  81463-3 0  9993
2 32119  99.8844 268.5496 0084724 266.0702  93.0773 14.02987340944945
FENGYUN 1C DEB          
1 32123U 99025CRR 26039.29551132  .00001910  00000+0  32900-3 0  9991
2 32123  98.9454 216.7982 0160782 116.6717   7.4671 14.61749949722156
FENGYUN 1C DEB          
1 32125U 99025CRT 26034.19090856  .00009935  00000+0  12807-2 0  9996
2 32125  99.0669  25.4094 0169901 159.7727 201.0317 14.71600058712941
FENGYUN 1C DEB          
1 32126U 99025CRU 26032.44598282  .00000857  00000+0  97716-3 0  9996
2 32126  99.1092 269.8197 0280531 125.0850 237.6942 13.56893639624028
FENGYUN 1C DEB          
1 32128U 99025CRW 26030.88155610  .00000943  00000+0  38423-3 0  9994
2 32128  99.0254  81.1397 0397133  88.2080 276.4511 13.94390113636700
FENGYUN 1C DEB          
1 32129U 99025CRX 26039.31189204  .00008175  00000+0  31381-2 0  9998
2 32129  99.0565 164.9365 0070611 226.2627 161.0929 14.29368380950498
FENGYUN 1C DEB          
1 32130U 99025CRY 26035.22357022  .00001914  00000+0  62619-3 0  9994
2 32130  98.9068 208.6550 0082962 171.6586 188.6001 14.37764709970039
FENGYUN 1C DEB          
1 32133U 99025CSB 26037.43939411  .00000493  00000+0  25877-3 0  9996
2 32133  98.4344  40.8646 0034348 300.9289  58.8513 14.18131045957646
FENGYUN 1C DEB          
1 32134U 99025CSC 26038.48446417  .00001827  00000+0  60281-3 0  9992
2 32134  98.5974  45.2729 0260414  98.8858  51.6854 14.21766536959530
FENGYUN 1C DEB          
1 32136U 99025CSE 26037.21122759  .00002530  00000+0  82459-3 0  9997
2 32136  98.2695  38.2618 0067038   8.5111 351.7197 14.38231958658875
FENGYUN 1C DEB          
1 32137U 99025CSF 26032.62154832  .00013768  00000+0  12840-2 0  9996
2 32137  98.4436 167.6474 0183675 230.6077 127.8747 14.82380850674846
FENGYUN 1C DEB          
1 32141U 99025CSK 26035.80984268  .00001018  00000+0  65799-3 0  9995
2 32141  98.7453  41.1414 0074682  57.0391 303.7929 14.03663111957028
FENGYUN 1C DEB          
1 32143U 99025CSM 26038.16145053  .00000595  00000+0  29569-3 0  9994
2 32143  98.6051  18.3399 0102560 306.7988  52.3810 14.18039689967338
FENGYUN 1C DEB          
1 32150U 99025CSU 26026.81663638  .00002091  00000+0  36104-3 0  9991
2 32150  99.1880  59.5939 0169678 290.8645  67.4457 14.60811398983643
FENGYUN 1C DEB          
1 32152U 99025CSW 26035.19826105  .00005935  00000+0  12852-2 0  9997
2 32152  98.7651 204.1139 0053979  38.4849 322.0178 14.57693230633915
FENGYUN 1C DEB          
1 32153U 99025CSX 26031.02572708  .00001039  00000+0  22000-3 0  9991
2 32153  98.7681 240.8978 0208424  72.8639 289.5261 14.48869811979376
FENGYUN 1C DEB          
1 32155U 99025CSZ 26029.54622409  .00001837  00000+0  66765-3 0  9993
2 32155  98.9570 325.7674 0070823  99.8770 261.0417 14.33103005709074
FENGYUN 1C DEB          
1 32156U 99025CTA 26032.72232014  .00001006  00000+0  37960-3 0  9990
2 32156  99.3592 211.2717 0081102 270.1951  88.9936 14.32062694655505
FENGYUN 1C DEB          
1 32160U 99025CTE 26036.38722095  .00002915  00000+0  94563-3 0  9996
2 32160  98.8852 200.3797 0082011 196.6838 163.1647 14.37808065966725
FENGYUN 1C DEB          
1 32161U 99025CTF 26037.53505795  .00000320  00000+0  21891-3 0  9993
2 32161  98.8260 145.4325 0136425 124.6943 236.7165 14.01935923642113
FENGYUN 1C DEB          
1 32162U 99025CTG 26039.12170140  .00006501  00000+0  12615-2 0  9993
2 32162  99.4534  97.5401 0046111 358.8640   1.2446 14.62950656957577
FENGYUN 1C DEB          
1 32163U 99025CTH 26035.82195193  .00003397  00000+0  10034-2 0  9995
2 32163  99.5453  53.1236 0050331 235.6753 123.9665 14.43550721617564
FENGYUN 1C DEB          
1 32167U 99025CTM 26026.77333995  .00001920  00000+0  64592-3 0  9996
2 32167  98.4786  25.2160 0162031 284.1844  74.1386 14.31146203633199
FENGYUN 1C DEB          
1 32168U 99025CTN 26039.06873873  .00001079  00000+0  78234-3 0  9990
2 32168 101.6508 127.0794 0240812  97.9063 264.9489 13.86523364642740
FENGYUN 1C DEB          
1 32169U 99025CTP 26038.50446511  .00039676  00000+0  63440-2 0  9990
2 32169  98.5589 234.8704 0035756 303.4063  56.3723 14.71228316974528
FENGYUN 1C DEB          
1 32171U 99025CTR 26032.52971780  .00002259  00000+0  20288-2 0  9990
2 32171 102.8038 308.3091 0482459 256.8467 284.3069 13.43151665612974
FENGYUN 1C DEB          
1 32174U 99025CTU 26035.41100970  .00000576  00000+0  26890-3 0  9995
2 32174  98.5924 100.8796 0151677  91.7732 270.0823 14.18006838648664
FENGYUN 1C DEB          
1 32175U 99025CTV 26029.21445243  .00003657  00000+0  24953-2 0  9992
2 32175  98.8272  20.7411 0148965 192.0426 167.7160 13.95196577605022
FENGYUN 1C DEB          
1 32177U 99025CTX 26026.29132585  .00008982  00000+0  19783-2 0  9992
2 32177  99.0439  44.3354 0050057 269.3302  90.2158 14.56900490716873
FENGYUN 1C DEB          
1 32178U 99025CTY 26036.29195957  .00002858  00000+0  12282-2 0  9999
2 32178 100.3032  51.9368 0094571 172.9831 187.2690 14.23326285647793
FENGYUN 1C DEB          
1 32179U 99025CTZ 26039.11814707  .00000125  00000+0  97098-4 0  9990
2 32179  98.9006  91.7902 0145582  30.5963 357.1807 14.03730751665330
FENGYUN 1C DEB          
1 32180U 99025CUA 26038.36217889  .00000086  00000+0  11368-3 0  9997
2 32180  99.5777  84.4222 0137198  61.8482   2.0545 13.82345290950502
FENGYUN 1C DEB          
1 32181U 99025CUB 26039.27424330  .00005978  00000+0  13069-2 0  9994
2 32181  99.4711 155.8112 0072053 272.9544 116.3100 14.56613412975580
FENGYUN 1C DEB          
1 32183U 99025CUD 26034.94352007  .00001246  00000+0  72181-3 0  9991
2 32183  98.7062  89.4661 0041651 267.7823  91.8579 14.10239496735145
FENGYUN 1C DEB          
1 32184U 99025CUE 26036.37646103  .00277407  00000+0  32845-2 0  9990
2 32184  98.1184 187.5917 0047400 155.9302 204.4182 15.58996681992503
FENGYUN 1C DEB          
1 32185U 99025CUF 26039.06516193  .00076445  00000+0  34630-2 0  9998
2 32185  98.9000 259.3296 0137246 186.0418 173.9160 15.12462485958797
FENGYUN 1C DEB          
1 32186U 99025CUG 26034.42892274  .00000978  00000+0  79272-3 0  9991
2 32186  99.6029  90.4624 0272210  63.6720 314.0711 13.76656543633353
FENGYUN 1C DEB          
1 32187U 99025CUH 26038.15450401  .00000290  00000+0  39631-3 0  9990
2 32187  99.4982 119.6470 0293156   4.8315  23.9454 13.50536606670206
FENGYUN 1C DEB          
1 32191U 99025CUM 26037.97419689  .00003383  00000+0  13846-2 0  9992
2 32191  98.7004  98.6575 0091277  24.0988 336.4422 14.25616700653025
FENGYUN 1C DEB          
1 32192U 99025CUN 26038.60317506  .00000443  00000+0  39174-3 0  9996
2 32192  98.6496 269.8923 0182179   8.6757 351.7477 13.82566976934981
FENGYUN 1C DEB          
1 32195U 99025CUR 26024.29062436  .00001425  00000+0  83573-3 0  9991
2 32195  98.7750  30.5477 0069209 179.0201 181.1117 14.08556806645817
FENGYUN 1C DEB          
1 32197U 99025CUT 26038.24317939  .00001603  00000+0  52294-3 0  9998
2 32197  98.9020 313.8777 0162879  64.7371  87.1822 14.32813966952321
FENGYUN 1C DEB          
1 32198U 99025CUU 26038.23776050  .00004780  00000+0  26484-2 0  9991
2 32198  98.3447 185.9852 0095330 132.4287 228.4998 14.09377745577418
FENGYUN 1C DEB          
1 32200U 99025CUW 26036.57213509  .00002674  00000+0  13672-2 0  9990
2 32200  98.7846  89.7905 0041561 134.6254 225.8322 14.15962598951392
FENGYUN 1C DEB          
1 32203U 99025CUZ 26038.16318433  .00062227  00000+0  90211-3 0  9997
2 32203  97.0110 292.6518 0123790 245.3167 113.5155 15.47132145759682
FENGYUN 1C DEB          
1 32205U 99025CVB 26036.30014395  .00000362  00000+0  21321-3 0  9991
2 32205  98.6804  43.6118 0011827 130.6576 245.5304 14.13955742952694
FENGYUN 1C DEB          
1 32207U 99025CVD 26037.12313750  .00002116  00000+0  66494-3 0  9990
2 32207  99.8661   9.3143 0084856 339.9243  82.6436 14.39767441651040
FENGYUN 1C DEB          
1 32209U 99025CVF 26031.79637376  .00001050  00000+0  12851-2 0  9995
2 32209  99.4250 341.3894 0329946 260.8055  95.5623 13.47390211906509
FENGYUN 1C DEB          
1 32212U 99025CVJ 26036.24217628  .00002570  00000+0  74037-3 0  9991
2 32212  99.5686 144.3590 0136124 280.1023 109.0595 14.40524591968461
FENGYUN 1C DEB          
1 32214U 99025CVL 26034.57304288  .00003999  00000+0  27769-2 0  9991
2 32214  99.0403  63.8176 0189082 254.9369 261.0240 13.91186832631564
FENGYUN 1C DEB          
1 32218U 99025CVQ 26039.04827139  .00005567  00000+0  12420-2 0  9998
2 32218  98.8120 241.0886 0060962 253.0546 260.6572 14.56120381970660
FENGYUN 1C DEB          
1 32221U 99025CVT 26038.37245439  .00001494  00000+0  28649-3 0  9990
2 32221  98.5714 195.0909 0145134 331.8681  27.4729 14.58897098980239
FENGYUN 1C DEB          
1 32223U 99025CVV 26036.17018899  .00004358  00000+0  19920-2 0  9999
2 32223  98.8309 120.2513 0049894 162.8425 227.9054 14.21327631649971
FENGYUN 1C DEB          
1 32224U 99025CVW 26036.83529514  .00001361  00000+0  48754-3 0  9993
2 32224  98.9909 354.9969 0074830 265.3901  93.8732 14.34175694965132
FENGYUN 1C DEB          
1 32225U 99025CVX 26034.40624050  .00000381  00000+0  22282-3 0  9995
2 32225  99.0843  88.8664 0072531  59.5116 301.3192 14.13100075688603
FENGYUN 1C DEB          
1 32230U 99025CWC 26036.36462724  .00022558  00000+0  48478-2 0  9990
2 32230  98.8683 194.4722 0050949 279.9827 108.7908 14.57734904614653
FENGYUN 1C DEB          
1 32234U 99025CWG 26035.55495946  .00001911  00000+0  13571-2 0  9992
2 32234  98.5282 246.3325 0135854 186.5849 173.3532 13.94381175939593
